{"type":"FeatureCollection","features":[{"type":"Feature","geometry":{"type":"Polygon","coordinates":[[[-3.61271,56.056455],[-3.611049,55.802998],[-2.772345,55.802998],[-2.770327,56.056455],[-3.61271,56.056455]],[[-3.161628,55.991598],[-3.122527,55.964677],[-3.065882,55.945877],[-3.068891,55.941832],[-3.082384,55.937446],[-3.058552,55.928783],[-3.066783,55.914033],[-3.080771,55.905466],[-3.092649,55.900503],[-3.116655,55.898715],[-3.132615,55.893322],[-3.149889,55.890027],[-3.164989,55.890265],[-3.188711,55.892579],[-3.206449,55.897389],[-3.230947,55.899929],[-3.25329,55.898428],[-3.2606,55.898815],[-3.267445,55.900092],[-3.272258,55.902548],[-3.275093,55.905378],[-3.278624,55.90972],[-3.284339,55.911995],[-3.294272,55.914306],[-3.29792,55.915792],[-3.317168,55.929213],[-3.32012,55.933914],[-3.322857,55.939936],[-3.337679,55.936883],[-3.360799,55.937529],[-3.396228,55.940691],[-3.399136,55.941515],[-3.392733,55.945766],[-3.353851,55.960626],[-3.328533,55.959188],[-3.302224,55.98136],[-3.291277,55.995784],[-3.161628,55.991598]]]},"properties":{}}]}